[{"OBJECT_NAME":"STARLINK-34788","OBJECT_ID":"2025-165A","EPOCH":"2026-03-09T17:05:35.739744","MEAN_MOTION":15.05663029,"ECCENTRICITY":2.103e-5,"INCLINATION":97.6021,"RA_OF_ASC_NODE":147.2462,"ARG_OF_PERICENTER":61.3467,"MEAN_ANOMALY":298.7781,"EPHEMERIS_TYPE":0,"CLASSIFICATION_TYPE":"U","NORAD_CAT_ID":65056,"ELEMENT_SET_NO":999,"REV_AT_EPOCH":3479,"BSTAR":0.00077069183,"MEAN_MOTION_DOT":0.00011081,"MEAN_MOTION_DDOT":0},{"OBJECT_NAME":"IRIDIUM 33 DEB","OBJECT_ID":"1997-051ACD","EPOCH":"2026-02-15T04:06:14.442336","MEAN_MOTION":15.0282309,"ECCENTRICITY":0.00183243,"INCLINATION":86.3384,"RA_OF_ASC_NODE":302.6959,"ARG_OF_PERICENTER":121.5358,"MEAN_ANOMALY":29.3036,"EPHEMERIS_TYPE":0,"CLASSIFICATION_TYPE":"U","NORAD_CAT_ID":46971,"ELEMENT_SET_NO":999,"REV_AT_EPOCH":65196,"BSTAR":0.0024316654,"MEAN_MOTION_DOT":0.00032805,"MEAN_MOTION_DDOT":0}]
